CZ-4B R/B               
1 27432U 02024C   22056.30435469  .00000003  00000+0  25419-4 0  9992
2 27432  99.0731  79.7639 0049674 232.6635 139.4276 14.14126084 21058
MIDORI II (ADEOS-II)    
1 27597U 02056A   22056.47397240  .00000101  00000+0  58701-4 0  9990
2 27597  98.5952   2.1044 0001345  37.4506 322.6769 14.27560565999989
H-2A R/B                
1 27601U 02056E   22055.99178965  .00000025  00000+0  23987-4 0  9996
2 27601  98.1802  69.0211 0071086 236.2684 175.3909 14.32035471  3061
CZ-4B R/B               
1 28059U 03049C   22055.83298923  .00000141  00000+0  45617-4 0  9990
2 28059  98.5119 350.9322 0050996  52.2358 308.3441 14.52717346972468
CZ-2C R/B               
1 28222U 04012C   22055.90763170  .00002223  00000+0  13141-3 0  9991
2 28222  97.7609  34.8271 0047570  78.3352 333.9436 15.11625034979220
SL-16 R/B               
1 28353U 04021B   22056.46045959  .00000330  00000+0  19785-3 0  9993
2 28353  70.9999  83.1723 0003399 134.2168 225.9234 14.14257433914521
CZ-4B R/B               
1 28415U 04035C   22055.90137183  .00001055  00000+0  71562-4 0  9993
2 28415  97.5333  98.7394 0051917  46.1318 314.4181 15.07540784956630
CZ-2C R/B               
1 28480U 04046B   22056.49238054  .00000020  00000+0  22719-4 0  9992
2 28480  98.0581  53.1241 0141472 193.4976 277.9670 14.25792684898505
ARIANE 5 R/B            
1 28499U 04049H   22055.93943687  .00000282  00000+0  41724-4 0  9995
2 28499  98.0838 171.7835 0093050  78.1776  36.4533 14.80262648927435
CZ-2D R/B               
1 28738U 05024B   22056.00826372  .00001627  00000+0  95525-4 0  9997
2 28738  97.3553  68.0515 0010912 199.9495 160.1311 15.13032397914760
SUZAKU (ASTRO-EII)      
1 28773U 05025A   22055.84937687  .00003674  00000+0  16360-3 0  9993
2 28773  31.3818 317.3450 0004794 305.3448  54.6752 15.19676924917878
ALOS (DAICHI)           
1 28931U 06002A   22056.35600799  .00000443  00000+0  95234-4 0  9992
2 28931  97.9216  25.5053 0001151  24.7670 335.3585 14.63007143858038
H-2A R/B                
1 28932U 06002B   22055.70653706  .00000964  00000+0  92128-4 0  9994
2 28932  98.3073  91.9885 0088744 101.5251  12.6074 14.93002573873217
AKARI (ASTRO-F)         
1 28939U 06005A   22056.42586829  .00011075  00000+0  24298-3 0  9992
2 28939  98.2118 115.6029 0077813 314.5050  44.9851 15.41046644875826
RESURS-DK 1             
1 29228U 06021A   22055.95052608  .00000592  00000+0  51320-4 0  9991
2 29228  69.9346  55.6620 0007481 249.2268 110.8091 15.02937263865477
GENESIS 1               
1 29252U 06029A   22055.76999794  .00002958  00000+0  14158-3 0  9996
2 29252  64.5221  80.8440 0060570 278.6944  80.7322 15.19609622861844
CZ-4B R/B               
1 29507U 06046C   22055.65175896  .00000082  00000+0  11162-4 0  9994
2 29507  97.7381  86.1925 0046749 243.1006 116.5437 15.01333539837948
CZ-2C R/B               
1 31114U 07010B   22056.47279762  .00000125  00000+0  77355-4 0  9995
2 31114  98.2321 237.3945 0058553 264.5256  94.9240 14.19396734770689
COSMO-SKYMED 1          
1 31598U 07023A   22056.46939353  .00000844  00000+0  11260-3 0  9993
2 31598  97.8847 241.7423 0001290  91.2115 268.9319 14.82153128796370
GENESIS 2               
1 31789U 07028A   22056.48707206  .00001984  00000+0  10420-3 0  9995
2 31789  64.4965 121.3919 0034587 333.0930  26.8398 15.18565234808954
COSMOS 2428             
1 31792U 07029A   22056.38730792  .00000334  00000+0  20642-3 0  9990
2 31792  70.9328  54.8661 0010335 231.6913 128.3280 14.12472321756100
SL-16 R/B               
1 31793U 07029B   22056.37890444 -.00000150  00000+0 -53421-4 0  9991
2 31793  70.9778  28.3011 0002296 277.2954 192.6788 14.14466879757104
KORONAS-FOTON           
1 33504U 09003A   22056.12065132  .00001364  00000+0  68121-4 0  9997
2 33504  82.4438 327.9115 0017337 304.3179  55.6412 15.16549664721068
H-2A R/B                
1 38341U 12025E   22056.11959290  .00000446  00000+0  59114-4 0  9997
2 38341  98.5175 263.8495 0056011  48.6817 311.9196 14.84455222529069
CUSAT 2 & FALCON 9 R/B  
1 39271U 13055G   22055.80755036  .00013879  00000+0  30932-3 0  9991
2 39271  80.9637 318.6582 0549430 101.9751 264.3560 14.57880397440331
CZ-2C R/B               
1 39364U 13059B   22055.76330151  .00004767  00000+0  16418-3 0  9999
2 39364  97.1781 112.9625 0045110  16.8569 343.4158 15.29518080462977
SL-4 R/B                
1 39679U 14021B   22055.66741326  .00002274  00000+0  12376-3 0  9997
2 39679  51.6151 120.8706 0167198 286.4786  71.7871 15.07760504432096
ALOS-2                  
1 39766U 14029A   22056.40488849  .00000078  00000+0  17327-4 0  9995
2 39766  97.9210 155.1471 0001545  91.0384 269.1022 14.79472696419062
CZ-2C R/B               
1 40306U 14071B   22055.91014907  .00017062  00000+0  26321-3 0  9993
2 40306  97.4071  24.9650 0014819  74.5593 285.7297 15.54092532409408
SL-27 R/B               
1 40354U 14084B   22056.45169784  .00004394  00000+0  10061-3 0  9992
2 40354  74.7381 187.9796 0034520  63.0544 297.4189 15.42419970403729
YAOGAN 29               
1 41038U 15069A   22056.30737817  .00000200  00000+0  33056-4 0  9990
2 41038  98.0537  56.0116 0002228  69.3596 290.7859 14.80583822337690
