OBJECT_NAME,OBJECT_ID,EPOCH,MEAN_MOTION,ECCENTRICITY,INCLINATION,RA_OF_ASC_NODE,ARG_OF_PERICENTER,MEAN_ANOMALY,EPHEMERIS_TYPE,CLASSIFICATION_TYPE,NORAD_CAT_ID,ELEMENT_SET_NO,REV_AT_EPOCH,BSTAR,MEAN_MOTION_DOT,MEAN_MOTION_DDOT
CZ-4B R/B,2002-024C,2022-02-25T07:18:16.245216,14.14126084,.0049674,99.0731,79.7639,232.6635,139.4276,0,U,27432,999,2105,.25419E-4,.3E-7,0
MIDORI II (ADEOS-II),2002-056A,2022-02-25T11:22:31.215360,14.27560565,.0001345,98.5952,2.1044,37.4506,322.6769,0,U,27597,999,99998,.58701E-4,.101E-5,0
H-2A R/B,2002-056E,2022-02-24T23:48:10.625760,14.32035471,.0071086,98.1802,69.0211,236.2684,175.3909,0,U,27601,999,306,.23987E-4,.25E-6,0
CZ-4B R/B,2003-049C,2022-02-24T19:59:30.269472,14.52717346,.0050996,98.5119,350.9322,52.2358,308.3441,0,U,28059,999,97246,.45617E-4,.141E-5,0
CZ-2C R/B,2004-012C,2022-02-24T21:46:59.378880,15.11625034,.004757,97.7609,34.8271,78.3352,333.9436,0,U,28222,999,97922,.13141E-3,.2223E-4,0
SL-16 R/B,2004-021B,2022-02-25T11:03:03.708576,14.14257433,.0003399,70.9999,83.1723,134.2168,225.9234,0,U,28353,999,91452,.19785E-3,.33E-5,0
CZ-4B R/B,2004-035C,2022-02-24T21:37:58.526112,15.07540784,.0051917,97.5333,98.7394,46.1318,314.4181,0,U,28415,999,95663,.71562E-4,.1055E-4,0
CZ-2C R/B,2004-046B,2022-02-25T11:49:01.678656,14.25792684,.0141472,98.0581,53.1241,193.4976,277.9670,0,U,28480,999,89850,.22719E-4,.2E-6,0
ARIANE 5 R/B,2004-049H,2022-02-24T22:32:47.345568,14.80262648,.009305,98.0838,171.7835,78.1776,36.4533,0,U,28499,999,92743,.41724E-4,.282E-5,0
CZ-2D R/B,2005-024B,2022-02-25T00:11:53.985408,15.13032397,.0010912,97.3553,68.0515,199.9495,160.1311,0,U,28738,999,91476,.95525E-4,.1627E-4,0
SUZAKU (ASTRO-EII),2005-025A,2022-02-24T20:23:06.161568,15.19676924,.0004794,31.3818,317.3450,305.3448,54.6752,0,U,28773,999,91787,.1636E-3,.3674E-4,0
ALOS (DAICHI),2006-002A,2022-02-25T08:32:39.090336,14.63007143,.0001151,97.9216,25.5053,24.7670,335.3585,0,U,28931,999,85803,.95234E-4,.443E-5,0
H-2A R/B,2006-002B,2022-02-24T16:57:24.801984,14.93002573,.0088744,98.3073,91.9885,101.5251,12.6074,0,U,28932,999,87321,.92128E-4,.964E-5,0
AKARI (ASTRO-F),2006-005A,2022-02-25T10:13:15.020256,15.41046644,.0077813,98.2118,115.6029,314.5050,44.9851,0,U,28939,999,87582,.24298E-3,.11075E-3,0
RESURS-DK 1,2006-021A,2022-02-24T22:48:45.453312,15.02937263,.0007481,69.9346,55.6620,249.2268,110.8091,0,U,29228,999,86547,.5132E-4,.592E-5,0
GENESIS 1,2006-029A,2022-02-24T18:28:47.822016,15.19609622,.006057,64.5221,80.8440,278.6944,80.7322,0,U,29252,999,86184,.14158E-3,.2958E-4,0
CZ-4B R/B,2006-046C,2022-02-24T15:38:31.974144,15.01333539,.0046749,97.7381,86.1925,243.1006,116.5437,0,U,29507,999,83794,.11162E-4,.82E-6,0
CZ-2C R/B,2007-010B,2022-02-25T11:20:49.714368,14.19396734,.0058553,98.2321,237.3945,264.5256,94.9240,0,U,31114,999,77068,.77355E-4,.125E-5,0
COSMO-SKYMED 1,2007-023A,2022-02-25T11:15:55.600992,14.82153128,.000129,97.8847,241.7423,91.2115,268.9319,0,U,31598,999,79637,.1126E-3,.844E-5,0
GENESIS 2,2007-028A,2022-02-25T11:41:23.025984,15.18565234,.0034587,64.4965,121.3919,333.0930,26.8398,0,U,31789,999,80895,.1042E-3,.1984E-4,0
COSMOS 2428,2007-029A,2022-02-25T09:17:43.404288,14.12472321,.0010335,70.9328,54.8661,231.6913,128.3280,0,U,31792,999,75610,.20642E-3,.334E-5,0
SL-16 R/B,2007-029B,2022-02-25T09:05:37.343616,14.14466879,.0002296,70.9778,28.3011,277.2954,192.6788,0,U,31793,999,75710,-.53421E-4,-.15E-5,0
KORONAS-FOTON,2009-003A,2022-02-25T02:53:44.274048,15.16549664,.0017337,82.4438,327.9115,304.3179,55.6412,0,U,33504,999,72106,.68121E-4,.1364E-4,0
H-2A R/B,2012-025E,2022-02-25T02:52:12.826560,14.84455222,.0056011,98.5175,263.8495,48.6817,311.9196,0,U,38341,999,52906,.59114E-4,.446E-5,0
CUSAT 2 & FALCON 9 R/B,2013-055G,2022-02-24T19:22:52.351104,14.57880397,.054943,80.9637,318.6582,101.9751,264.3560,0,U,39271,999,44033,.30932E-3,.13879E-3,0
CZ-2C R/B,2013-059B,2022-02-24T18:19:09.250464,15.29518080,.004511,97.1781,112.9625,16.8569,343.4158,0,U,39364,999,46297,.16418E-3,.4767E-4,0
SL-4 R/B,2014-021B,2022-02-24T16:01:04.505664,15.07760504,.0167198,51.6151,120.8706,286.4786,71.7871,0,U,39679,999,43209,.12376E-3,.2274E-4,0
ALOS-2,2014-029A,2022-02-25T09:43:02.365536,14.79472696,.0001545,97.9210,155.1471,91.0384,269.1022,0,U,39766,999,41906,.17327E-4,.78E-6,0
CZ-2C R/B,2014-071B,2022-02-24T21:50:36.879648,15.54092532,.0014819,97.4071,24.9650,74.5593,285.7297,0,U,40306,999,40940,.26321E-3,.17062E-3,0
SL-27 R/B,2014-084B,2022-02-25T10:50:26.693376,15.42419970,.003452,74.7381,187.9796,63.0544,297.4189,0,U,40354,999,40372,.10061E-3,.4394E-4,0
YAOGAN 29,2015-069A,2022-02-25T07:22:37.473888,14.80583822,.0002228,98.0537,56.0116,69.3596,290.7859,0,U,41038,999,33769,.33056E-4,.2E-5,0
